OBJECT_NAME,OBJECT_ID,EPOCH,MEAN_MOTION,ECCENTRICITY,INCLINATION,RA_OF_ASC_NODE,ARG_OF_PERICENTER,MEAN_ANOMALY,EPHEMERIS_TYPE,CLASSIFICATION_TYPE,NORAD_CAT_ID,ELEMENT_SET_NO,REV_AT_EPOCH,BSTAR,MEAN_MOTION_DOT,MEAN_MOTION_DDOT
TIANMU-1 20,2023-208B,2026-07-01T22:44:02.062176,15.32985791,.00055653,97.4465,299.9755,268.5897,91.4708,0,U,58661,999,13968,.30402955E-3,.9614E-4,0
TIANMU-1 21,2023-208C,2026-07-01T21:55:00.231168,15.35339058,.00057379,97.4524,302.6859,258.6762,101.3836,0,U,58662,999,13982,.33584656E-3,.11455E-3,0
TIANMU-1 22,2023-208D,2026-07-01T21:47:07.192032,15.31262705,.00021947,97.4519,299.2084,292.2487,67.8521,0,U,58663,999,13958,.28991726E-3,.8678E-4,0
TIANMU-1 15,2024-004A,2026-07-01T20:14:36.994272,15.26798099,.00056891,97.4664,9.0340,288.6642,71.3979,0,U,58700,999,13801,.32265143E-3,.8429E-4,0
TIANMU-1 16,2024-004B,2026-07-01T23:09:28.934208,15.26898381,.00045333,97.4612,8.3795,308.9014,51.1820,0,U,58701,999,13803,.23891275E-3,.6239E-4,0
TIANMU-1 17,2024-004C,2026-07-01T22:48:33.189696,15.26896556,.00041438,97.4639,8.8554,317.1841,42.9074,0,U,58702,999,13802,.24500125E-3,.6399E-4,0
TIANMU-1 18,2024-004D,2026-07-01T23:47:26.936736,15.26815935,.00034232,97.4657,9.1576,291.7070,68.3804,0,U,58703,999,13803,.25398828E-3,.662E-4,0
INSAT-3DS,2024-033A,2026-07-01T21:35:37.779648,1.00269550,.00014611,0.0707,97.0681,353.8819,234.9443,0,U,58990,999,4721,0,-.145E-5,0
METEOR-M2 4,2024-039A,2026-07-01T22:55:33.885984,14.22430991,.00080117,98.7018,142.0681,121.8377,238.3581,0,U,59051,999,12136,.22442216E-4,.6E-7,0
GOES 19,2024-119A,2026-07-01T22:56:35.930688,1.00271416,.00005237,0.0102,90.1119,65.5493,33.3013,0,U,60133,999,711,0,-.238E-5,0
MTG-S1,2025-143A,2026-07-01T20:52:10.456608,1.00272479,.00029391,0.5921,342.0191,262.8853,347.5974,0,U,64723,999,356,0,.3E-7,0
METOP-SGA1,2025-172A,2026-07-01T10:41:19.463424,14.19817298,.00078427,98.6639,241.8713,12.7907,347.3467,0,U,65159,999,4581,.42812545E-4,.48E-6,0
FENGYUN 3H,2025-219A,2026-07-01T06:36:19.171296,14.19922785,.00014194,98.6769,122.7705,66.7567,293.3759,0,U,65815,999,3938,.44167963E-4,.5E-6,0
