TIANMU-1 20             
1 58661U 23208B   26182.94724609  .00009614  00000+0  30403-3 0  9993
2 58661  97.4465 299.9755 0005565 268.5897  91.4708 15.32985791139681
TIANMU-1 21             
1 58662U 23208C   26182.91319712  .00011455  00000+0  33585-3 0  9996
2 58662  97.4524 302.6859 0005737 258.6762 101.3836 15.35339058139828
TIANMU-1 22             
1 58663U 23208D   26182.90772213  .00008678  00000+0  28992-3 0  9994
2 58663  97.4519 299.2084 0002194 292.2487  67.8521 15.31262705139586
TIANMU-1 15             
1 58700U 24004A   26182.84348373  .00008429  00000+0  32265-3 0  9992
2 58700  97.4664   9.0340 0005689 288.6642  71.3979 15.26798099138013
TIANMU-1 16             
1 58701U 24004B   26182.96491822  .00006239  00000+0  23891-3 0  9996
2 58701  97.4612   8.3795 0004533 308.9014  51.1820 15.26898381138037
TIANMU-1 17             
1 58702U 24004C   26182.95038414  .00006399  00000+0  24500-3 0  9995
2 58702  97.4639   8.8554 0004143 317.1841  42.9074 15.26896556138022
TIANMU-1 18             
1 58703U 24004D   26182.99128399  .00006620  00000+0  25399-3 0  9996
2 58703  97.4657   9.1576 0003423 291.7070  68.3804 15.26815935138038
INSAT-3DS               
1 58990U 24033A   26182.89974282 -.00000145  00000+0  00000+0 0  9990
2 58990   0.0707  97.0681 0001461 353.8819 234.9443  1.00269550 47218
METEOR-M2 4             
1 59051U 24039A   26182.95525331  .00000006  00000+0  22442-4 0  9993
2 59051  98.7018 142.0681 0008011 121.8377 238.3581 14.22430991121364
GOES 19                 
1 60133U 24119A   26182.95597142 -.00000238  00000+0  00000+0 0  9993
2 60133   0.0102  90.1119 0000523  65.5493  33.3013  1.00271416  7115
MTG-S1                  
1 64723U 25143A   26182.86956547  .00000003  00000+0  00000+0 0  9997
2 64723   0.5921 342.0191 0002939 262.8853 347.5974  1.00272479  3563
METOP-SGA1              
1 65159U 25172A   26182.44536416  .00000048  00000+0  42813-4 0  9998
2 65159  98.6639 241.8713 0007842  12.7907 347.3467 14.19817298 45814
FENGYUN 3H              
1 65815U 25219A   26182.27522189  .00000050  00000+0  44168-4 0  9990
2 65815  98.6769 122.7705 0001419  66.7567 293.3759 14.19922785 39387
